[{"OBJECT_NAME":"YUNYAO-1 47","OBJECT_ID":"2025-059E","EPOCH":"2026-03-09T22:46:15.708288","MEAN_MOTION":15.10508558,"ECCENTRICITY":0.00172664,"INCLINATION":97.6066,"RA_OF_ASC_NODE":250.9227,"ARG_OF_PERICENTER":135.6694,"MEAN_ANOMALY":224.5922,"EPHEMERIS_TYPE":0,"CLASSIFICATION_TYPE":"U","NORAD_CAT_ID":63348,"ELEMENT_SET_NO":999,"REV_AT_EPOCH":5331,"BSTAR":0.00029014568,"MEAN_MOTION_DOT":4.732e-5,"MEAN_MOTION_DDOT":0},{"OBJECT_NAME":"STARLINK-35198","OBJECT_ID":"2025-211W","EPOCH":"2026-03-09T16:08:17.360160","MEAN_MOTION":15.05647983,"ECCENTRICITY":0.00012013,"INCLINATION":97.6038,"RA_OF_ASC_NODE":114.116,"ARG_OF_PERICENTER":136.3765,"MEAN_ANOMALY":223.7557,"EPHEMERIS_TYPE":0,"CLASSIFICATION_TYPE":"U","NORAD_CAT_ID":65672,"ELEMENT_SET_NO":999,"REV_AT_EPOCH":2704,"BSTAR":0.00016996395,"MEAN_MOTION_DOT":2.392e-5,"MEAN_MOTION_DDOT":0}]
